[{"OBJECT_NAME":"CUTE-1 (CO-55)","OBJECT_ID":"2003-031E","EPOCH":"2026-03-09T23:38:51.813024","MEAN_MOTION":14.24266468,"ECCENTRICITY":0.00106777,"INCLINATION":98.6777,"RA_OF_ASC_NODE":78.7801,"ARG_OF_PERICENTER":111.7093,"MEAN_ANOMALY":248.5223,"EPHEMERIS_TYPE":0,"CLASSIFICATION_TYPE":"U","NORAD_CAT_ID":27844,"ELEMENT_SET_NO":999,"REV_AT_EPOCH":17755,"BSTAR":0.00020468113,"MEAN_MOTION_DOT":4.29e-6,"MEAN_MOTION_DDOT":0},{"OBJECT_NAME":"SCOUT A DEB","OBJECT_ID":"1966-005D","EPOCH":"2026-03-08T23:41:16.655712","MEAN_MOTION":14.05761401,"ECCENTRICITY":0.01172554,"INCLINATION":90.2347,"RA_OF_ASC_NODE":255.9038,"ARG_OF_PERICENTER":24.3065,"MEAN_ANOMALY":336.3585,"EPHEMERIS_TYPE":0,"CLASSIFICATION_TYPE":"U","NORAD_CAT_ID":2141,"ELEMENT_SET_NO":999,"REV_AT_EPOCH":5450,"BSTAR":0.00041579629,"MEAN_MOTION_DOT":7.32e-6,"MEAN_MOTION_DDOT":0}]
